[
    {
        "CCSDS_OMM_VERS": "3.0",
        "COMMENT": "GENERATED VIA SPACE-TRACK.ORG API",
        "CREATION_DATE": "2025-04-09T19:37:26",
        "ORIGINATOR": "18 SPCS",
        "OBJECT_NAME": "GALILEO 28 (224)",
        "OBJECT_ID": "2021-116B",
        "CENTER_NAME": "EARTH",
        "REF_FRAME": "TEME",
        "TIME_SYSTEM": "UTC",
        "MEAN_ELEMENT_THEORY": "SGP4",
        "EPOCH": "2025-04-09T00:43:43.442688",
        "MEAN_MOTION": "1.70475823",
        "ECCENTRICITY": "0.00012450",
        "INCLINATION": "57.2723",
        "RA_OF_ASC_NODE": "353.3919",
        "ARG_OF_PERICENTER": "290.6711",
        "MEAN_ANOMALY": "250.1077",
        "EPHEMERIS_TYPE": "0",
        "CLASSIFICATION_TYPE": "U",
        "NORAD_CAT_ID": "49810",
        "ELEMENT_SET_NO": "999",
        "REV_AT_EPOCH": "2080",
        "BSTAR": "0.00000000000000",
        "MEAN_MOTION_DOT": "-0.00000105",
        "MEAN_MOTION_DDOT": "0.0000000000000",
        "SEMIMAJOR_AXIS": "29600.109",
        "PERIOD": "844.695",
        "APOAPSIS": "23225.659",
        "PERIAPSIS": "23218.289",
        "OBJECT_TYPE": "PAYLOAD",
        "RCS_SIZE": "LARGE",
        "COUNTRY_CODE": "ESA",
        "LAUNCH_DATE": "2021-12-05",
        "SITE": "FRGUI",
        "DECAY_DATE": null,
        "FILE": "4696786",
        "GP_ID": "285230414",
        "TLE_LINE0": "0 GALILEO 28 (224)",
        "TLE_LINE1": "1 49810U 21116B   25099.03036392 -.00000105  00000-0  00000-0 0  9991",
        "TLE_LINE2": "2 49810  57.2723 353.3919 0001245 290.6711 250.1077  1.70475823 20800"
    }
]